NORAD_CAT_ID,OBJECT_NAME,OBJECT_TYPE,EPOCH,MEAN_MOTION,ECCENTRICITY,INCLINATION,RA_OF_ASC_NODE,ARG_OF_PERICENTER,MEAN_ANOMALY,BSTAR,MEAN_MOTION_DOT,MEAN_MOTION_DDOT,TLE_LINE0,TLE_LINE1,TLE_LINE2,SEMIMAJOR_AXIS,PERIOD,APOGEE,PERIGEE,DECAYED
54763.0,STARLINK-5191,PAYLOAD,2023-01-31 08:00:01,15.10854817,0.0001562,53.2159,92.1091,83.952,91.2033,-0.079092,-0.01218686,0.0,0 STARLINK-5191,1 54763U 22175F   23031.33334491 -.01218686  00000-0 -79092-1 0  9993,2 54763  53.2159  92.1091 0001562  83.9520  91.2033 15.10854817  6661,6911.729,95.31,534.673,532.514,0.0
54763.0,STARLINK-5191,PAYLOAD,2023-01-31 14:00:01,15.10189491,0.0001543,53.216,90.9849,74.5909,20.7795,-0.077064,-0.01169871,0.0,0 STARLINK-5191,1 54763U 22175F   23031.58334491 -.01169871  00000-0 -77064-1 0  9998,2 54763  53.2160  90.9849 0001543  74.5909  20.7795 15.10189491  1303,6913.759,95.352,536.69,534.557,0.0
54763.0,STARLINK-5191,PAYLOAD,2023-01-31 22:00:00,15.09123252,0.0001722,53.2162,89.4848,90.0027,18.1081,-0.027332,-0.00414147,0.0,0 STARLINK-5191,1 54763U 22175F   23031.91667824 -.00414147  00000-0 -27332-1 0  9995,2 54763  53.2162  89.4848 0001722  90.0027  18.1081 15.09123252  6743,6917.015,95.42,540.071,537.689,0.0
54763.0,STARLINK-5191,PAYLOAD,2023-02-01 06:00:00,15.08852282,0.0001809,53.2165,87.9883,89.7546,30.095,-0.0015399,-0.00024721,0.0,0 STARLINK-5191,1 54763U 22175F   23032.25001157 -.00024721  00000-0 -15399-2 0  9990,2 54763  53.2165  87.9883 0001809  89.7546  30.0950 15.08852282  6799,6917.843,95.437,540.959,538.456,0.0
54763.0,STARLINK-5191,PAYLOAD,2023-02-01 14:00:01,15.08809239,0.0001681,53.2164,86.4934,82.8304,48.6396,0.002376,0.00037697,0.0,0 STARLINK-5191,1 54763U 22175F   23032.58334491  .00037697  00000-0  23760-2 0  9991,2 54763  53.2164  86.4934 0001681  82.8304  48.6396 15.08809239  1308,6917.974,95.44,541.002,538.677,0.0
54763.0,STARLINK-5191,PAYLOAD,2023-02-02 06:00:00,15.08875654,0.0001685,53.2168,83.4994,93.4086,61.2176,-0.0029386,-0.00046798,0.0,0 STARLINK-5191,1 54763U 22175F   23033.25001157 -.00046798  00000-0 -29386-2 0  9990,2 54763  53.2168  83.4994 0001685  93.4086  61.2176 15.08875654  6940,6917.771,95.435,540.802,538.471,0.0
54763.0,STARLINK-5191,PAYLOAD,2023-02-02 14:00:01,15.08803667,0.0001629,53.2165,82.0043,90.1633,76.0958,0.0023178,0.00036756,0.0,0 STARLINK-5191,1 54763U 22175F   23033.58334491  .00036756  00000-0  23178-2 0  9990,2 54763  53.2165  82.0043 0001629  90.1633  76.0958 15.08803667  1309,6917.991,95.44,540.983,538.73,0.0
54763.0,STARLINK-5191,PAYLOAD,2023-02-03 08:00:01,15.08859815,0.000165,53.2165,78.637,96.0559,186.2368,-0.0030233,-0.00048109,0.0,0 STARLINK-5191,1 54763U 22175F   23034.33334491 -.00048109  00000-0 -30233-2 0  9991,2 54763  53.2165  78.6370 0001650  96.0559 186.2368 15.08859815  7119,6917.82,95.436,540.826,538.543,0.0
54763.0,STARLINK-5191,PAYLOAD,2023-02-03 14:00:01,15.08810215,0.0001607,53.2163,77.5153,88.943,112.0616,0.0021746,0.00034462,0.0,0 STARLINK-5191,1 54763U 22175F   23034.58334491  .00034462  00000-0  21746-2 0  9992,2 54763  53.2163  77.5153 0001607  88.9430 112.0616 15.08810215  1303,6917.971,95.439,540.948,538.725,0.0
54763.0,STARLINK-5191,PAYLOAD,2023-02-04 00:00:00,15.08804654,0.0001608,53.216,75.6429,98.7218,206.7571,0.0038316,0.00061162,0.0,0 STARLINK-5191,1 54763U 22175F   23035.00001157  .00061162  00000-0  38316-2 0  9998,2 54763  53.2160  75.6429 0001608  98.7218 206.7571 15.08804654  7216,6917.988,95.44,540.966,538.741,0.0
54763.0,STARLINK-5191,PAYLOAD,2023-02-04 08:11:25,15.08834522,0.0001958,53.2172,74.1097,107.2468,252.8739,5.2603e-05,5.49e-06,0.0,0 STARLINK-5191,1 54763U 22175F   23035.34126662  .00000549  00000-0  52603-4 0  9993,2 54763  53.2172  74.1097 0001958 107.2468 252.8739 15.08834522  7265,6917.897,95.438,541.117,538.408,0.0
54763.0,STARLINK-5191,PAYLOAD,2023-02-04 19:19:07,15.08835093,0.0001643,53.2162,72.0282,101.2844,258.8333,9.8933e-05,1.287e-05,0.0,0 STARLINK-5191,1 54763U 22175F   23035.80494639  .00001287  00000-0  98933-4 0  9992,2 54763  53.2162  72.0282 0001643 101.2844 258.8333 15.08835093  9497,6917.895,95.438,540.897,538.624,0.0
54763.0,STARLINK-5191,PAYLOAD,2023-02-05 03:16:03,15.08815188,0.0001818,53.2172,70.542,97.8422,262.2777,0.00024777,3.655e-05,0.0,0 STARLINK-5191,1 54763U 22175F   23036.13615363  .00003655  00000-0  24777-3 0  9993,2 54763  53.2172  70.5420 0001818  97.8422 262.2777 15.08815188  7381,6917.956,95.439,541.079,538.564,0.0
54763.0,STARLINK-5191,PAYLOAD,2023-02-05 11:12:58,15.08837316,0.0001707,53.2172,69.0549,98.9253,261.1933,7.4533e-05,8.98e-06,0.0,0 STARLINK-5191,1 54763U 22175F   23036.46734855  .00000898  00000-0  74533-4 0  9999,2 54763  53.2172  69.0549 0001707  98.9253 261.1933 15.08837316  7432,6917.889,95.438,540.934,538.573,0.0
54763.0,STARLINK-5191,PAYLOAD,2023-02-05 19:09:54,15.08834462,0.0001817,53.2184,67.5664,102.5865,257.533,5.0831e-05,5.21e-06,0.0,0 STARLINK-5191,1 54763U 22175F   23036.79855206  .00000521  00000-0  50831-4 0  9997,2 54763  53.2184  67.5664 0001817 102.5865 257.5330 15.08834462  9643,6917.897,95.438,541.019,538.505,0.0
54763.0,STARLINK-5191,PAYLOAD,2023-02-06 11:03:45,15.08844661,0.0001658,53.2171,64.5944,93.569,266.5491,7.9853e-05,9.83e-06,0.0,0 STARLINK-5191,1 54763U 22175F   23037.46094595  .00000983  00000-0  79853-4 0  9995,2 54763  53.2171  64.5944 0001658  93.5690 266.5491 15.08844661  9746,6917.866,95.437,540.878,538.584,0.0
54763.0,STARLINK-5191,PAYLOAD,2023-02-06 19:00:41,15.08846005,0.0001743,53.2187,63.1095,89.4216,270.6976,9.2902e-05,1.191e-05,0.0,0 STARLINK-5191,1 54763U 22175F   23037.79214470  .00001191  00000-0  92902-4 0  9999,2 54763  53.2187  63.1095 0001743  89.4216 270.6976 15.08846005  7632,6917.862,95.437,540.933,538.521,0.0
54763.0,STARLINK-5191,PAYLOAD,2023-02-07 10:54:31,15.08855525,0.0001586,53.2163,60.134,95.9736,264.1437,0.00014449,2.013e-05,0.0,0 STARLINK-5191,1 54763U 22175F   23038.45453414  .00002013  00000-0  14449-3 0  9999,2 54763  53.2163  60.1340 0001586  95.9736 264.1437 15.08855525  7738,6917.833,95.437,540.795,538.601,0.0
54763.0,STARLINK-5191,PAYLOAD,2023-02-08 07:34:33,15.08847066,0.0001544,53.2178,56.2684,96.0622,264.0546,2.9909e-05,1.88e-06,0.0,0 STARLINK-5191,1 54763U 22175F   23039.31566213  .00000188  00000-0  29909-4 0  9996,2 54763  53.2178  56.2684 0001544  96.0622 264.0546 15.08847066  7866,6917.859,95.437,540.792,538.656,0.0
54763.0,STARLINK-5191,PAYLOAD,2023-02-08 10:45:19,15.08851755,0.0001536,53.2173,55.6721,104.9954,255.1208,6.4191e-05,7.34e-06,0.0,0 STARLINK-5191,1 54763U 22175F   23039.44813692  .00000734  00000-0  64191-4 0  9995,2 54763  53.2173  55.6721 0001536 104.9954 255.1208 15.08851755 10044,6917.844,95.437,540.772,538.647,0.0
54763.0,STARLINK-5191,PAYLOAD,2023-02-09 07:25:20,15.08844674,0.0001578,53.2183,51.8069,102.8165,257.3004,-7.9262e-05,-1.549e-05,0.0,0 STARLINK-5191,1 54763U 22175F   23040.30926642 -.00001549  00000-0 -79262-4 0  9994,2 54763  53.2183  51.8069 0001578 102.8165 257.3004 15.08844674  8019,6917.866,95.437,540.823,538.639,0.0
54763.0,STARLINK-5191,PAYLOAD,2023-02-10 00:54:35,15.08832069,0.0001655,53.2187,48.5367,113.2554,246.8613,-1.3891e-05,-5.09e-06,0.0,0 STARLINK-5191,1 54763U 22175F   23041.03791402 -.00000509  00000-0 -13891-4 0  9990,2 54763  53.2187  48.5367 0001655 113.2554 246.8613 15.08832069 10287,6917.905,95.438,540.915,538.625,0.0
54763.0,STARLINK-5191,PAYLOAD,2023-02-10 07:16:08,15.08840358,0.0001589,53.2179,47.3471,108.8503,251.2662,0.0001163,1.563e-05,0.0,0 STARLINK-5191,1 54763U 22175F   23041.30287101  .00001563  00000-0  11630-3 0  9993,2 54763  53.2179  47.3471 0001589 108.8503 251.2662 15.08840358 10320,6917.879,95.438,540.844,538.645,0.0
54763.0,STARLINK-5191,PAYLOAD,2023-02-11 05:31:32,15.08842387,0.0001548,53.2176,43.1839,109.1572,250.9587,0.00015512,2.182e-05,0.0,0 STARLINK-5191,1 54763U 22175F   23042.23023162  .00002182  00000-0  15512-3 0  9992,2 54763  53.2176  43.1839 0001548 109.1572 250.9587 15.08842387  8305,6917.873,95.437,540.809,538.667,0.0
54763.0,STARLINK-5191,PAYLOAD,2023-02-12 08:33:05,15.08842212,0.0001322,53.2161,38.1288,102.314,257.8,2.268e-05,7.3e-07,0.0,0 STARLINK-5191,1 54763U 22175F   23043.35631143  .00000073  00000-0  22680-4 0  9992,2 54763  53.2161  38.1288 0001322 102.3140 257.8000 15.08842212  8478,6917.874,95.437,540.653,538.824,0.0
54763.0,STARLINK-5191,PAYLOAD,2023-02-12 22:51:34,15.08804337,0.0001527,53.2176,35.4542,99.2268,260.8896,0.00086808,0.00013541,0.0,0 STARLINK-5191,1 54763U 22175F   23043.95248785  .00013541  00000-0  86808-3 0  9999,2 54763  53.2176  35.4542 0001527  99.2268 260.8896 15.08804337  8562,6917.989,95.44,540.911,538.798,0.0
54763.0,STARLINK-5191,PAYLOAD,2023-02-13 00:26:57,15.08778816,0.0001658,53.2183,35.1556,96.4241,263.694,0.00085866,0.00013381,0.0,0 STARLINK-5191,1 54763U 22175F   23044.01872683  .00013381  00000-0  85866-3 0  9992,2 54763  53.2183  35.1556 0001658  96.4241 263.6940 15.08778816  8571,6918.067,95.441,541.079,538.785,0.0
54763.0,STARLINK-5191,PAYLOAD,2023-02-13 08:23:52,15.08852235,0.00017,53.2184,33.6678,121.0117,239.1042,9.1889e-06,-1.42e-06,0.0,0 STARLINK-5191,1 54763U 22175F   23044.34991007 -.00000142  00000-0  91889-5 0  9996,2 54763  53.2184  33.6678 0001700 121.0117 239.1042 15.08852235  8620,6917.843,95.437,540.884,538.532,0.0
54763.0,STARLINK-5191,PAYLOAD,2023-02-13 16:20:48,15.08837065,0.0001434,53.2172,32.1798,95.3381,264.7775,5.8209e-05,6.39e-06,0.0,0 STARLINK-5191,1 54763U 22175F   23044.68112012  .00000639  00000-0  58209-4 0  9992,2 54763  53.2172  32.1798 0001434  95.3381 264.7775 15.08837065  8670,6917.889,95.438,540.746,538.762,0.0
54763.0,STARLINK-5191,PAYLOAD,2023-02-14 08:14:39,15.08846126,0.0001318,53.2172,29.2096,90.9864,269.1279,0.00012534,1.708e-05,0.0,0 STARLINK-5191,1 54763U 22175F   23045.34351273  .00001708  00000-0  12534-3 0  9998,2 54763  53.2172  29.2096 0001318  90.9864 269.1279 15.08846126  8773,6917.862,95.437,540.638,538.815,0.0
